{
"type": "FeatureCollection",
"name": "provinces_with_nodeid",
"crs": { "type": "name", "properties": { "name": "urn:ogc:def:crs:OGC:1.3:CRS84" } },
"features": [
{ "type": "Feature", "properties": { "province_clean": "ILOCOS NORTE", "node_id": 0 }, "geometry": { "type": "Point", "coordinates": [ 120.73941457300009, 18.218205073000036 ] } },
{ "type": "Feature", "properties": { "province_clean": "ILOCOS SUR", "node_id": 1 }, "geometry": { "type": "Point", "coordinates": [ 120.53033433600001, 17.287465965000024 ] } },
{ "type": "Feature", "properties": { "province_clean": "LA UNION", "node_id": 2 }, "geometry": { "type": "Point", "coordinates": [ 120.416954170000054, 16.561103316000128 ] } },
{ "type": "Feature", "properties": { "province_clean": "PANGASINAN", "node_id": 3 }, "geometry": { "type": "Point", "coordinates": [ 120.33322684600023, 16.005953217000069 ] } },
{ "type": "Feature", "properties": { "province_clean": "BATANES", "node_id": 4 }, "geometry": { "type": "Point", "coordinates": [ 121.846165663000306, 20.762181202000079 ] } },
{ "type": "Feature", "properties": { "province_clean": "CAGAYAN", "node_id": 5 }, "geometry": { "type": "Point", "coordinates": [ 121.815534213000205, 18.064018777000058 ] } },
{ "type": "Feature", "properties": { "province_clean": "ISABELA", "node_id": 6 }, "geometry": { "type": "Point", "coordinates": [ 122.017354924000188, 16.989511320000076 ] } },
{ "type": "Feature", "properties": { "province_clean": "NUEVA VIZCAYA", "node_id": 7 }, "geometry": { "type": "Point", "coordinates": [ 121.109571840000058, 16.255046144 ] } },
{ "type": "Feature", "properties": { "province_clean": "QUIRINO", "node_id": 8 }, "geometry": { "type": "Point", "coordinates": [ 121.67692906000002, 16.284693673 ] } },
{ "type": "Feature", "properties": { "province_clean": "BATAAN", "node_id": 9 }, "geometry": { "type": "Point", "coordinates": [ 120.42775985600008, 14.665137737 ] } },
{ "type": "Feature", "properties": { "province_clean": "BULACAN", "node_id": 10 }, "geometry": { "type": "Point", "coordinates": [ 121.108589570000163, 14.980350439 ] } },
{ "type": "Feature", "properties": { "province_clean": "NUEVA ECIJA", "node_id": 11 }, "geometry": { "type": "Point", "coordinates": [ 120.990796316000115, 15.656879991000153 ] } },
{ "type": "Feature", "properties": { "province_clean": "PAMPANGA", "node_id": 12 }, "geometry": { "type": "Point", "coordinates": [ 120.656656412000075, 15.022918830000094 ] } },
{ "type": "Feature", "properties": { "province_clean": "TARLAC", "node_id": 13 }, "geometry": { "type": "Point", "coordinates": [ 120.462625716000048, 15.514612763000116 ] } },
{ "type": "Feature", "properties": { "province_clean": "ZAMBALES", "node_id": 14 }, "geometry": { "type": "Point", "coordinates": [ 120.119371222000041, 15.305958133000161 ] } },
{ "type": "Feature", "properties": { "province_clean": "AURORA", "node_id": 15 }, "geometry": { "type": "Point", "coordinates": [ 121.458500709000077, 15.752810794000084 ] } },
{ "type": "Feature", "properties": { "province_clean": "BATANGAS", "node_id": 16 }, "geometry": { "type": "Point", "coordinates": [ 121.037013116000139, 13.91360707900003 ] } },
{ "type": "Feature", "properties": { "province_clean": "CAVITE", "node_id": 17 }, "geometry": { "type": "Point", "coordinates": [ 120.851462834000131, 14.278387086000066 ] } },
{ "type": "Feature", "properties": { "province_clean": "LAGUNA", "node_id": 18 }, "geometry": { "type": "Point", "coordinates": [ 121.510974248000252, 14.279563269000107 ] } },
{ "type": "Feature", "properties": { "province_clean": "QUEZON", "node_id": 19 }, "geometry": { "type": "Point", "coordinates": [ 121.670803340000134, 14.189431051000042 ] } },
{ "type": "Feature", "properties": { "province_clean": "RIZAL", "node_id": 20 }, "geometry": { "type": "Point", "coordinates": [ 121.268397478000111, 14.560638676000053 ] } },
{ "type": "Feature", "properties": { "province_clean": "ALBAY", "node_id": 21 }, "geometry": { "type": "Point", "coordinates": [ 123.553696336000144, 13.254714443000069 ] } },
{ "type": "Feature", "properties": { "province_clean": "CAMARINES NORTE", "node_id": 22 }, "geometry": { "type": "Point", "coordinates": [ 122.816691263000166, 14.093455854000126 ] } },
{ "type": "Feature", "properties": { "province_clean": "CAMARINES SUR", "node_id": 23 }, "geometry": { "type": "Point", "coordinates": [ 123.206273024000097, 13.681970079000109 ] } },
{ "type": "Feature", "properties": { "province_clean": "CATANDUANES", "node_id": 24 }, "geometry": { "type": "Point", "coordinates": [ 124.274706257000048, 13.80842175700019 ] } },
{ "type": "Feature", "properties": { "province_clean": "MASBATE", "node_id": 25 }, "geometry": { "type": "Point", "coordinates": [ 123.745035616000337, 12.160860974000059 ] } },
{ "type": "Feature", "properties": { "province_clean": "SORSOGON", "node_id": 26 }, "geometry": { "type": "Point", "coordinates": [ 123.997890271000188, 12.827615275000085 ] } },
{ "type": "Feature", "properties": { "province_clean": "AKLAN", "node_id": 27 }, "geometry": { "type": "Point", "coordinates": [ 122.276754192000112, 11.62519917000003 ] } },
{ "type": "Feature", "properties": { "province_clean": "ANTIQUE", "node_id": 28 }, "geometry": { "type": "Point", "coordinates": [ 122.145420006000222, 11.117091620000053 ] } },
{ "type": "Feature", "properties": { "province_clean": "CAPIZ", "node_id": 29 }, "geometry": { "type": "Point", "coordinates": [ 122.641334965000055, 11.373708270000179 ] } },
{ "type": "Feature", "properties": { "province_clean": "ILOILO", "node_id": 30 }, "geometry": { "type": "Point", "coordinates": [ 122.615393461000167, 11.032439588000102 ] } },
{ "type": "Feature", "properties": { "province_clean": "NEGROS OCCIDENTAL", "node_id": 31 }, "geometry": { "type": "Point", "coordinates": [ 122.999118537000186, 10.223890475000076 ] } },
{ "type": "Feature", "properties": { "province_clean": "GUIMARAS", "node_id": 32 }, "geometry": { "type": "Point", "coordinates": [ 122.608858724000129, 10.579703944000016 ] } },
{ "type": "Feature", "properties": { "province_clean": "BOHOL", "node_id": 33 }, "geometry": { "type": "Point", "coordinates": [ 124.206754759000205, 9.880643932000055 ] } },
{ "type": "Feature", "properties": { "province_clean": "CEBU", "node_id": 34 }, "geometry": { "type": "Point", "coordinates": [ 123.781258131000072, 10.349285588000043 ] } },
{ "type": "Feature", "properties": { "province_clean": "NEGROS ORIENTAL", "node_id": 35 }, "geometry": { "type": "Point", "coordinates": [ 122.994801689000042, 9.738991933000023 ] } },
{ "type": "Feature", "properties": { "province_clean": "SIQUIJOR", "node_id": 36 }, "geometry": { "type": "Point", "coordinates": [ 123.559581057000059, 9.197857861000159 ] } },
{ "type": "Feature", "properties": { "province_clean": "EASTERN SAMAR", "node_id": 37 }, "geometry": { "type": "Point", "coordinates": [ 125.378226947000144, 11.680168567000123 ] } },
{ "type": "Feature", "properties": { "province_clean": "LEYTE", "node_id": 38 }, "geometry": { "type": "Point", "coordinates": [ 124.860860475000209, 10.874378372000137 ] } },
{ "type": "Feature", "properties": { "province_clean": "NORTHERN SAMAR", "node_id": 39 }, "geometry": { "type": "Point", "coordinates": [ 124.818210822000196, 12.361188493000157 ] } },
{ "type": "Feature", "properties": { "province_clean": "SOUTHERN LEYTE", "node_id": 40 }, "geometry": { "type": "Point", "coordinates": [ 125.156154796000123, 10.302658278000024 ] } },
{ "type": "Feature", "properties": { "province_clean": "BILIRAN", "node_id": 41 }, "geometry": { "type": "Point", "coordinates": [ 124.485406044000115, 11.584329487000048 ] } },
{ "type": "Feature", "properties": { "province_clean": "ZAMBOANGA DEL NORTE", "node_id": 42 }, "geometry": { "type": "Point", "coordinates": [ 122.426990017000207, 7.933273973000041 ] } },
{ "type": "Feature", "properties": { "province_clean": "ZAMBOANGA DEL SUR", "node_id": 43 }, "geometry": { "type": "Point", "coordinates": [ 123.257065085000022, 7.81459 ] } },
{ "type": "Feature", "properties": { "province_clean": "ZAMBOANGA SIBUGAY", "node_id": 44 }, "geometry": { "type": "Point", "coordinates": [ 122.939337160000036, 7.693198994 ] } },
{ "type": "Feature", "properties": { "province_clean": "BUKIDNON", "node_id": 45 }, "geometry": { "type": "Point", "coordinates": [ 124.968194812000092, 8.005168102000027 ] } },
{ "type": "Feature", "properties": { "province_clean": "CAMIGUIN", "node_id": 46 }, "geometry": { "type": "Point", "coordinates": [ 124.713617305000184, 9.168388422000021 ] } },
{ "type": "Feature", "properties": { "province_clean": "LANAO DEL NORTE", "node_id": 47 }, "geometry": { "type": "Point", "coordinates": [ 123.933502707000343, 8.014330781000126 ] } },
{ "type": "Feature", "properties": { "province_clean": "MISAMIS OCCIDENTAL", "node_id": 48 }, "geometry": { "type": "Point", "coordinates": [ 123.705668447000107, 8.341188008000131 ] } },
{ "type": "Feature", "properties": { "province_clean": "MISAMIS ORIENTAL", "node_id": 49 }, "geometry": { "type": "Point", "coordinates": [ 124.981876058000012, 8.626896829000145 ] } },
{ "type": "Feature", "properties": { "province_clean": "DAVAO DEL NORTE", "node_id": 50 }, "geometry": { "type": "Point", "coordinates": [ 125.626242636000256, 7.612809148999986 ] } },
{ "type": "Feature", "properties": { "province_clean": "DAVAO DEL SUR", "node_id": 51 }, "geometry": { "type": "Point", "coordinates": [ 125.375620234000166, 6.998287029000153 ] } },
{ "type": "Feature", "properties": { "province_clean": "DAVAO ORIENTAL", "node_id": 52 }, "geometry": { "type": "Point", "coordinates": [ 126.274828995, 7.13567703700005 ] } },
{ "type": "Feature", "properties": { "province_clean": "DAVAO OCCIDENTAL", "node_id": 53 }, "geometry": { "type": "Point", "coordinates": [ 125.622033030000125, 6.094038613000123 ] } },
{ "type": "Feature", "properties": { "province_clean": "SOUTH COTABATO", "node_id": 54 }, "geometry": { "type": "Point", "coordinates": [ 124.794521903000032, 6.313037507000104 ] } },
{ "type": "Feature", "properties": { "province_clean": "SULTAN KUDARAT", "node_id": 55 }, "geometry": { "type": "Point", "coordinates": [ 124.319328235000057, 6.501239036000129 ] } },
{ "type": "Feature", "properties": { "province_clean": "SARANGANI", "node_id": 56 }, "geometry": { "type": "Point", "coordinates": [ 124.658445135000079, 6.029350778000094 ] } },
{ "type": "Feature", "properties": { "province_clean": "ABRA", "node_id": 57 }, "geometry": { "type": "Point", "coordinates": [ 120.799642897000012, 17.563941902000124 ] } },
{ "type": "Feature", "properties": { "province_clean": "BENGUET", "node_id": 58 }, "geometry": { "type": "Point", "coordinates": [ 120.702645542000141, 16.553488335 ] } },
{ "type": "Feature", "properties": { "province_clean": "IFUGAO", "node_id": 59 }, "geometry": { "type": "Point", "coordinates": [ 121.170035404000146, 16.823685663999981 ] } },
{ "type": "Feature", "properties": { "province_clean": "KALINGA", "node_id": 60 }, "geometry": { "type": "Point", "coordinates": [ 121.313000788000181, 17.429967877000138 ] } },
{ "type": "Feature", "properties": { "province_clean": "MOUNTAIN PROVINCE", "node_id": 61 }, "geometry": { "type": "Point", "coordinates": [ 121.052567668000165, 17.055927581000105 ] } },
{ "type": "Feature", "properties": { "province_clean": "APAYAO", "node_id": 62 }, "geometry": { "type": "Point", "coordinates": [ 121.196803053000053, 18.089467580000132 ] } },
{ "type": "Feature", "properties": { "province_clean": "AGUSAN DEL NORTE", "node_id": 63 }, "geometry": { "type": "Point", "coordinates": [ 125.641089277000106, 9.080013917000144 ] } },
{ "type": "Feature", "properties": { "province_clean": "AGUSAN DEL SUR", "node_id": 64 }, "geometry": { "type": "Point", "coordinates": [ 125.630406524000023, 8.580496505000042 ] } },
{ "type": "Feature", "properties": { "province_clean": "SURIGAO DEL NORTE", "node_id": 65 }, "geometry": { "type": "Point", "coordinates": [ 125.576336410000181, 9.575410635000026 ] } },
{ "type": "Feature", "properties": { "province_clean": "SURIGAO DEL SUR", "node_id": 66 }, "geometry": { "type": "Point", "coordinates": [ 126.101253280000037, 8.710291662000088 ] } },
{ "type": "Feature", "properties": { "province_clean": "DINAGAT ISLANDS", "node_id": 67 }, "geometry": { "type": "Point", "coordinates": [ 125.587480976000165, 10.161631180000086 ] } },
{ "type": "Feature", "properties": { "province_clean": "MARINDUQUE", "node_id": 68 }, "geometry": { "type": "Point", "coordinates": [ 121.98254896900005, 13.384829087000014 ] } },
{ "type": "Feature", "properties": { "province_clean": "OCCIDENTAL MINDORO", "node_id": 69 }, "geometry": { "type": "Point", "coordinates": [ 121.013717551000013, 12.869345874000089 ] } },
{ "type": "Feature", "properties": { "province_clean": "ORIENTAL MINDORO", "node_id": 70 }, "geometry": { "type": "Point", "coordinates": [ 121.366140969000071, 12.866766334000147 ] } },
{ "type": "Feature", "properties": { "province_clean": "PALAWAN", "node_id": 71 }, "geometry": { "type": "Point", "coordinates": [ 120.027984986000092, 12.145079881000072 ] } },
{ "type": "Feature", "properties": { "province_clean": "ROMBLON", "node_id": 72 }, "geometry": { "type": "Point", "coordinates": [ 122.586591841000086, 12.386652997000169 ] } },
{ "type": "Feature", "properties": { "province_clean": "BASILAN", "node_id": 73 }, "geometry": { "type": "Point", "coordinates": [ 122.127244247000249, 6.578869799000131 ] } },
{ "type": "Feature", "properties": { "province_clean": "LANAO DEL SUR", "node_id": 74 }, "geometry": { "type": "Point", "coordinates": [ 124.348501749000206, 7.781850021000025 ] } },
{ "type": "Feature", "properties": { "province_clean": "SULU", "node_id": 75 }, "geometry": { "type": "Point", "coordinates": [ 121.156296219000069, 5.973584432000052 ] } },
{ "type": "Feature", "properties": { "province_clean": "TAWI-TAWI", "node_id": 76 }, "geometry": { "type": "Point", "coordinates": [ 120.034253497, 5.197837874000129 ] } }
]
}
